NORAD_CAT_ID,OBJECT_NAME,OBJECT_TYPE,EPOCH,MEAN_MOTION,ECCENTRICITY,INCLINATION,RA_OF_ASC_NODE,ARG_OF_PERICENTER,MEAN_ANOMALY,BSTAR,MEAN_MOTION_DOT,MEAN_MOTION_DDOT,TLE_LINE0,TLE_LINE1,TLE_LINE2,SEMIMAJOR_AXIS,PERIOD,APOGEE,PERIGEE,DECAYED
52312.0,STARLINK-3752,PAYLOAD,2024-04-29 16:39:34,15.08838951,0.0001379,53.2185,257.2041,78.2904,281.8243,0.00017606,2.515e-05,0.0,0 STARLINK-3752,1 52312U 22041BD  24120.69415404  .00002515  00000-0  17606-3 0  9990,2 52312  53.2185 257.2041 0001379  78.2904 281.8243 15.08838951113360,6917.884,95.438,540.703,538.795,0.0
52312.0,STARLINK-3752,PAYLOAD,2024-04-30 14:54:58,15.08850195,0.0001418,53.2177,253.0407,71.315,288.7996,0.00050485,7.758e-05,0.0,0 STARLINK-3752,1 52312U 22041BD  24121.62151592  .00007758  00000-0  50485-3 0  9995,2 52312  53.2177 253.0407 0001418  71.3150 288.7996 15.08850195113503,6917.849,95.437,540.695,538.733,0.0
52312.0,STARLINK-3752,PAYLOAD,2024-04-30 16:30:21,15.08853441,0.0001303,53.217,252.7434,70.6648,289.4485,0.00058001,8.958e-05,0.0,0 STARLINK-3752,1 52312U 22041BD  24121.68775462  .00008958  00000-0  58001-3 0  9994,2 52312  53.2170 252.7434 0001303  70.6648 289.4485 15.08853441113518,6917.839,95.437,540.606,538.803,0.0
52312.0,STARLINK-3752,PAYLOAD,2024-05-01 02:02:40,15.08852672,0.0001301,53.2164,250.959,70.5331,289.5801,0.00038289,5.813e-05,0.0,0 STARLINK-3752,1 52312U 22041BD  24122.08519262  .00005813  00000-0  38289-3 0  9996,2 52312  53.2164 250.9590 0001301  70.5331 289.5801 15.08852672113574,6917.842,95.437,540.607,538.807,0.0
52312.0,STARLINK-3752,PAYLOAD,2024-05-01 17:56:31,15.08852792,0.0001354,53.2165,247.9855,69.627,290.4868,0.0002789,4.155e-05,0.0,0 STARLINK-3752,1 52312U 22041BD  24122.74758870  .00004155  00000-0  27890-3 0  9993,2 52312  53.2165 247.9855 0001354  69.6270 290.4868 15.08852792113672,6917.841,95.437,540.643,538.77,0.0
52312.0,STARLINK-3752,PAYLOAD,2024-05-02 01:53:27,15.08846558,0.0001309,53.2165,246.4982,68.0892,292.0239,0.00010105,1.321e-05,0.0,0 STARLINK-3752,1 52312U 22041BD  24123.07878977  .00001321  00000-0  10105-3 0  9994,2 52312  53.2165 246.4982 0001309  68.0892 292.0239 15.08846558113729,6917.86,95.437,540.631,538.82,0.0
52312.0,STARLINK-3752,PAYLOAD,2024-05-02 13:01:10,15.08834171,0.0001392,53.2189,244.4179,67.8249,292.2891,-6.9369e-05,-1.392e-05,0.0,0 STARLINK-3752,1 52312U 22041BD  24123.54247687 -.00001392  00000-0 -69369-4 0  9991,2 52312  53.2189 244.4179 0001392  67.8249 292.2891 15.08834171113797,6917.898,95.438,540.726,538.8,0.0
52312.0,STARLINK-3752,PAYLOAD,2024-05-02 14:36:32,15.08841823,0.0001421,53.218,244.1179,88.3292,271.7863,4.3799e-05,4.09e-06,0.0,0 STARLINK-3752,1 52312U 22041BD  24123.60871434  .00000409  00000-0  43799-4 0  9996,2 52312  53.2180 244.1179 0001421  88.3292 271.7863 15.08841823113809,6917.875,95.437,540.723,538.757,0.0
52312.0,STARLINK-3752,PAYLOAD,2024-05-03 12:51:55,15.0886089,0.0001423,53.2176,239.9544,92.9604,267.1551,0.00045316,6.936e-05,0.0,0 STARLINK-3752,1 52312U 22041BD  24124.53605719  .00006936  00000-0  45316-3 0  9997,2 52312  53.2176 239.9544 0001423  92.9604 267.1551 15.08860890113945,6917.817,95.436,540.666,538.697,0.0
52312.0,STARLINK-3752,PAYLOAD,2024-05-03 14:27:17,15.08879143,0.000137,53.2177,239.659,82.0461,278.0687,-2.6028e-05,-7.03e-06,0.0,0 STARLINK-3752,1 52312U 22041BD  24124.60228318 -.00000703  00000-0 -26028-4 0  9999,2 52312  53.2177 239.6590 0001370  82.0461 278.0687 15.08879143113959,6917.761,95.435,540.573,538.678,0.0
52312.0,STARLINK-3752,PAYLOAD,2024-05-04 11:07:20,15.08827815,0.0001283,53.2173,235.7928,108.2467,251.8665,-0.00019976,-3.465e-05,0.0,0 STARLINK-3752,1 52312U 22041BD  24125.46343132 -.00003465  00000-0 -19976-3 0  9997,2 52312  53.2173 235.7928 0001283 108.2467 251.8665 15.08827815114086,6917.918,95.438,540.67,538.895,0.0
52312.0,STARLINK-3752,PAYLOAD,2024-05-05 12:33:31,15.08844051,0.0001183,53.2174,231.0348,106.6759,253.4363,0.0011852,0.00018627,0.0,0 STARLINK-3752,1 52312U 22041BD  24126.52327997  .00018627  00000-0  11852-2 0  9994,2 52312  53.2174 231.0348 0001183 106.6759 253.4363 15.08844051114249,6917.868,95.437,540.551,538.915,0.0
52312.0,STARLINK-3752,PAYLOAD,2024-05-06 12:24:17,15.0885599,0.0001227,53.2179,226.5753,106.1322,253.9806,0.00055219,8.515e-05,0.0,0 STARLINK-3752,1 52312U 22041BD  24127.51687404  .00008515  00000-0  55219-3 0  9997,2 52312  53.2179 226.5753 0001227 106.1322 253.9806 15.08855990114390,6917.832,95.437,540.545,538.848,0.0
52312.0,STARLINK-3752,PAYLOAD,2024-05-06 13:59:40,15.08861661,0.0001236,53.2182,226.2782,105.3862,254.7267,0.00075206,0.00011708,0.0,0 STARLINK-3752,1 52312U 22041BD  24127.58311257  .00011708  00000-0  75206-3 0  9990,2 52312  53.2182 226.2782 0001236 105.3862 254.7267 15.08861661114407,6917.814,95.436,540.534,538.824,0.0
52312.0,STARLINK-3752,PAYLOAD,2024-05-07 12:15:04,15.08840018,0.0001216,53.2187,222.1161,83.6966,276.4165,-3.873e-05,-9.04e-06,0.0,0 STARLINK-3752,1 52312U 22041BD  24128.51047363 -.00000904  00000-0 -38730-4 0  9998,2 52312  53.2187 222.1161 0001216  83.6966 276.4165 15.08840018114545,6917.88,95.438,540.587,538.904,0.0
52312.0,STARLINK-3752,PAYLOAD,2024-05-07 13:50:27,15.08841628,0.000109,53.2171,221.8176,81.7679,278.3437,4.5572e-05,4.38e-06,0.0,0 STARLINK-3752,1 52312U 22041BD  24128.57671268  .00000438  00000-0  45572-4 0  9993,2 52312  53.2171 221.8176 0001090  81.7679 278.3437 15.08841628114552,6917.875,95.437,540.494,538.986,0.0
52312.0,STARLINK-3752,PAYLOAD,2024-05-07 15:25:51,15.08841473,0.0001141,53.2175,221.5205,79.6159,280.4962,5.7021e-05,6.2e-06,0.0,0 STARLINK-3752,1 52312U 22041BD  24128.64295318  .00000620  00000-0  57021-4 0  9994,2 52312  53.2175 221.5205 0001141  79.6159 280.4962 15.08841473114568,6917.876,95.437,540.53,538.952,0.0
52312.0,STARLINK-3752,PAYLOAD,2024-05-08 12:05:52,15.08829807,0.0001125,53.2163,217.6517,96.2448,263.8672,0.00020385,2.957e-05,0.0,0 STARLINK-3752,1 52312U 22041BD  24129.50408334  .00002957  00000-0  20385-3 0  9991,2 52312  53.2163 217.6517 0001125  96.2448 263.8672 15.08829807114699,6917.912,95.438,540.555,538.998,0.0
52312.0,STARLINK-3752,PAYLOAD,2024-05-08 13:41:15,15.08833534,0.0001168,53.2164,217.3565,74.9655,285.1466,0.00030328,4.541e-05,0.0,0 STARLINK-3752,1 52312U 22041BD  24129.57032397  .00004541  00000-0  30328-3 0  9999,2 52312  53.2164 217.3565 0001168  74.9655 285.1466 15.08833534114702,6917.9,95.438,540.573,538.957,0.0
52312.0,STARLINK-3752,PAYLOAD,2024-05-09 11:56:39,15.08855324,0.0001234,53.2162,213.1929,83.0654,277.0479,0.00086517,0.00013514,0.0,0 STARLINK-3752,1 52312U 22041BD  24130.49768330  .00013514  00000-0  86517-3 0  9996,2 52312  53.2162 213.1929 0001234  83.0654 277.0479 15.08855324114842,6917.834,95.437,540.552,538.845,0.0
52312.0,STARLINK-3752,PAYLOAD,2024-05-09 23:04:21,15.08855702,0.0001111,53.214,211.1137,70.0914,290.0198,0.00065813,0.00010206,0.0,0 STARLINK-3752,1 52312U 22041BD  24130.96136111  .00010206  00000-0  65813-3 0  9995,2 52312  53.2140 211.1137 0001111  70.0914 290.0198 15.08855702114917,6917.832,95.437,540.466,538.929,0.0
52312.0,STARLINK-3752,PAYLOAD,2024-05-10 11:47:26,15.08845351,0.000126,53.2173,208.7347,86.6533,273.4603,0.00022283,3.261e-05,0.0,0 STARLINK-3752,1 52312U 22041BD  24131.49128430  .00003261  00000-0  22283-3 0  9996,2 52312  53.2173 208.7347 0001260  86.6533 273.4603 15.08845351114996,6917.864,95.437,540.601,538.857,0.0
52312.0,STARLINK-3752,PAYLOAD,2024-05-11 05:16:40,15.08865744,0.0001346,53.2188,205.4637,91.6943,268.4203,0.00058649,9.065e-05,0.0,0 STARLINK-3752,1 52312U 22041BD  24132.21991405  .00009065  00000-0  58649-3 0  9990,2 52312  53.2188 205.4637 0001346  91.6943 268.4203 15.08865744115106,6917.802,95.436,540.598,538.736,0.0
52312.0,STARLINK-3752,PAYLOAD,2024-05-11 11:38:12,15.08945964,0.0001012,53.2156,204.2728,81.0281,279.0825,0.0034012,0.00054418,0.0,0 STARLINK-3752,1 52312U 22041BD  24132.48486523  .00054418  00000-0  34012-2 0  9998,2 52312  53.2156 204.2728 0001012  81.0281 279.0825 15.08945964115142,6917.557,95.431,540.122,538.721,0.0
52312.0,STARLINK-3752,PAYLOAD,2024-05-11 21:10:29,15.0889409,0.0001726,53.2175,202.4894,81.9167,278.2021,0.00070618,0.00010985,0.0,0 STARLINK-3752,1 52312U 22041BD  24132.88228780  .00010985  00000-0  70618-3 0  9995,2 52312  53.2175 202.4894 0001726  81.9167 278.2021 15.08894090115200,6917.715,95.434,540.774,538.386,0.0
52312.0,STARLINK-3752,PAYLOAD,2024-05-12 05:07:27,15.08753367,0.0002264,53.2181,201.0036,87.2035,272.9216,-0.0041411,-0.00065443,0.0,0 STARLINK-3752,1 52312U 22041BD  24133.21351684 -.00065443  00000-0 -41411-2 0  9992,2 52312  53.2181 201.0036 0002264  87.2035 272.9216 15.08753367115254,6918.145,95.443,541.576,538.444,0.0
52312.0,STARLINK-3752,PAYLOAD,2024-05-12 11:29:03,15.08672577,0.000141,53.2179,199.8145,100.3138,259.8013,0.00029803,4.437e-05,0.0,0 STARLINK-3752,1 52312U 22041BD  24133.47850969  .00004437  00000-0  29803-3 0  9996,2 52312  53.2179 199.8145 0001410 100.3138 259.8013 15.08672577115295,6918.392,95.448,541.233,539.282,0.0
52312.0,STARLINK-3752,PAYLOAD,2024-05-12 21:01:22,15.08773941,9.01e-05,53.2164,198.0278,97.6292,262.4802,0.0025512,0.00040474,0.0,0 STARLINK-3752,1 52312U 22041BD  24133.87595834  .00040474  00000-0  25512-2 0  9990,2 52312  53.2164 198.0278 0000901  97.6292 262.4802 15.08773941115350,6918.082,95.442,540.571,539.324,0.0
52312.0,STARLINK-3752,PAYLOAD,2024-05-13 11:19:51,15.08851579,0.0001419,53.2161,195.3511,89.2434,270.872,0.0019745,0.00031286,0.0,0 STARLINK-3752,1 52312U 22041BD  24134.47212389  .00031286  00000-0  19745-2 0  9990,2 52312  53.2161 195.3511 0001419  89.2434 270.8720 15.08851579115443,6917.845,95.437,540.692,538.728,0.0
52312.0,STARLINK-3752,PAYLOAD,2024-05-13 14:30:37,15.08854081,0.0001384,53.2158,194.7577,93.4981,266.617,0.0016452,0.00026002,0.0,0 STARLINK-3752,1 52312U 22041BD  24134.60460317  .00026002  00000-0  16452-2 0  9993,2 52312  53.2158 194.7577 0001384  93.4981 266.6170 15.08854081115464,6917.837,95.437,540.66,538.745,0.0
